STARLINK-2022           
1 47643U 21012Z   24286.16102071  .00057645  00000+0  38608-2 0  9993
2 47643  53.0536 196.9368 0001541 104.4721 255.6439 15.06366864202340
